[{"OBJECT_NAME":"GEOSCAN 4 (RS92S4)","OBJECT_ID":"2025-155S","EPOCH":"2026-02-01T22:20:47.474592","MEAN_MOTION":15.28985707,"ECCENTRICITY":0.00047206,"INCLINATION":97.4403,"RA_OF_ASC_NODE":1.7426,"ARG_OF_PERICENTER":322.7608,"MEAN_ANOMALY":37.3304,"EPHEMERIS_TYPE":0,"CLASSIFICATION_TYPE":"U","NORAD_CAT_ID":64892,"ELEMENT_SET_NO":999,"REV_AT_EPOCH":6012,"BSTAR":0.00059474107,"MEAN_MOTION_DOT":0.0001669,"MEAN_MOTION_DDOT":0},{"OBJECT_NAME":"GEOSCAN 3 (RS92S3)","OBJECT_ID":"2025-155T","EPOCH":"2026-02-01T22:28:56.299872","MEAN_MOTION":15.30046459,"ECCENTRICITY":0.0004464,"INCLINATION":97.4396,"RA_OF_ASC_NODE":1.8779,"ARG_OF_PERICENTER":328.4619,"MEAN_ANOMALY":31.6353,"EPHEMERIS_TYPE":0,"CLASSIFICATION_TYPE":"U","NORAD_CAT_ID":64893,"ELEMENT_SET_NO":999,"REV_AT_EPOCH":6013,"BSTAR":0.00062321842,"MEAN_MOTION_DOT":0.00018076,"MEAN_MOTION_DDOT":0},{"OBJECT_NAME":"INNOSAT 3 (RS92S0)","OBJECT_ID":"2025-155U","EPOCH":"2026-02-01T22:36:16.424928","MEAN_MOTION":15.33892745,"ECCENTRICITY":0.00036703,"INCLINATION":97.4372,"RA_OF_ASC_NODE":2.3045,"ARG_OF_PERICENTER":342.0439,"MEAN_ANOMALY":18.0673,"EPHEMERIS_TYPE":0,"CLASSIFICATION_TYPE":"U","NORAD_CAT_ID":64894,"ELEMENT_SET_NO":999,"REV_AT_EPOCH":6016,"BSTAR":0.0010348455,"MEAN_MOTION_DOT":0.00033964,"MEAN_MOTION_DDOT":0}]
