GEOSCAN-4 (RS92S4)
1 64892U 25155S   26032.93110503  .00016690  00000-0  59474-3 0  9996
2 64892  97.4403   1.7426 0004721 322.7608  37.3304 15.28985707 60121
GEOSCAN-3 (RS92S3)
1 64893U 25155T   26032.93676273  .00018076  00000-0  62322-3 0  9994
2 64893  97.4396   1.8779 0004464 328.4619  31.6353 15.30046459 60131
INNOSAT3 (RS92S0)
1 64894U 25155U   26032.94185677  .00033964  00000-0  10348-2 0  9992
2 64894  97.4372   2.3045 0003670 342.0439  18.0673 15.33892745 60165
